******** Week 376 almanac for PRN-01 ********
ID:                         01
Health:                     000
Eccentricity:               0.1791477203E-002
Time of Applicability(s):  319488.0000
Orbital Inclination(rad):   0.9570805741
Rate of Right Ascen(r/s):  -0.8171768958E-008
SQRT(A)  (m 1/2):           5153.553711
Right Ascen at Week(rad):   0.1129776101E+001
Argument of Perigee(rad):   0.207489627
Mean Anom(rad):            -0.1741013142E+001
Af0(s):                     0.2393722534E-003
Af1(s/s):                  -0.1091393642E-010
week:                        376

******** Week 376 almanac for PRN-02 ********
ID:                         02
Health:                     000
Eccentricity:               0.1685523987E-001
Time of Applicability(s):  319488.0000
Orbital Inclination(rad):   0.9621499013
Rate of Right Ascen(r/s):  -0.8126052768E-008
SQRT(A)  (m 1/2):           5153.687500
Right Ascen at Week(rad):   0.9676980731E+000
Argument of Perigee(rad):  -0.748663518
Mean Anom(rad):            -0.2884838874E+000
Af0(s):                     0.1249313354E-003
Af1(s/s):                   0.7275957614E-011
week:                        376

******** Week 376 almanac for PRN-03 ********
ID:                         03
Health:                     000
Eccentricity:               0.6956577301E-002
Time of Applicability(s):  319488.0000
Orbital Inclination(rad):   0.9946211586
Rate of Right Ascen(r/s):  -0.7486026109E-008
SQRT(A)  (m 1/2):           5153.530273
Right Ascen at Week(rad):   0.2121423150E+001
Argument of Perigee(rad):   1.247815848
Mean Anom(rad):             0.2493672275E+001
Af0(s):                     0.4053115845E-003
Af1(s/s):                  -0.1818989404E-010
week:                        376

******** Week 376 almanac for PRN-04 ********
ID:                         04
Health:                     000
Eccentricity:               0.3781318665E-002
Time of Applicability(s):  319488.0000
Orbital Inclination(rad):   0.9722526029
Rate of Right Ascen(r/s):  -0.7646032774E-008
SQRT(A)  (m 1/2):           5153.637207
Right Ascen at Week(rad):  -0.3093408579E+001
Argument of Perigee(rad):  -2.891768003
Mean Anom(rad):            -0.8324796890E+000
Af0(s):                     0.6103515625E-004
Af1(s/s):                   0.0000000000E+000
week:                        376

******** Week 376 almanac for PRN-05 ********
ID:                         05
Health:                     000
Eccentricity:               0.5620956421E-002
Time of Applicability(s):  319488.0000
Orbital Inclination(rad):   0.9810190634
Rate of Right Ascen(r/s):  -0.7646032774E-008
SQRT(A)  (m 1/2):           5153.720215
Right Ascen at Week(rad):   0.2060168780E+001
Argument of Perigee(rad):   1.461259762
Mean Anom(rad):            -0.2531648786E+000
Af0(s):                    -0.2346038818E-003
Af1(s/s):                   0.0000000000E+000
week:                        376

******** Week 376 almanac for PRN-06 ********
ID:                         06
Health:                     000
Eccentricity:               0.3686904907E-002
Time of Applicability(s):  319488.0000
Orbital Inclination(rad):   0.9858606902
Rate of Right Ascen(r/s):  -0.7897471819E-008
SQRT(A)  (m 1/2):           5153.659668
Right Ascen at Week(rad):   0.1083480291E+001
Argument of Perigee(rad):  -0.533633192
Mean Anom(rad):            -0.2514804958E+001
Af0(s):                    -0.5855560303E-003
Af1(s/s):                   0.7275957614E-011
week:                        376

******** Week 376 almanac for PRN-07 ********
ID:                         07
Health:                     000
Eccentricity:               0.2091217041E-001
Time of Applicability(s):  319488.0000
Orbital Inclination(rad):   0.9508487772
Rate of Right Ascen(r/s):  -0.7966046104E-008
SQRT(A)  (m 1/2):           5153.531738
Right Ascen at Week(rad):  -0.2085989542E+001
Argument of Perigee(rad):  -1.959559340
Mean Anom(rad):             0.2967913896E+001
Af0(s):                    -0.1993179321E-003
Af1(s/s):                  -0.3637978807E-011
week:                        376

******** Week 376 almanac for PRN-08 ********
ID:                         08
Health:                     000
Eccentricity:               0.1164102554E-001
Time of Applicability(s):  319488.0000
Orbital Inclination(rad):   0.9424058907
Rate of Right Ascen(r/s):  -0.8091765626E-008
SQRT(A)  (m 1/2):           5153.686523
Right Ascen at Week(rad):  -0.4118266537E-001
Argument of Perigee(rad):   0.543228062
Mean Anom(rad):            -0.5616676647E+000
Af0(s):                     0.4148483276E-003
Af1(s/s):                  -0.7275957614E-011
week:                        376

******** Week 376 almanac for PRN-09 ********
ID:                         09
Health:                     000
Eccentricity:               0.3561973572E-002
Time of Applicability(s):  319488.0000
Orbital Inclination(rad):   0.9665301355
Rate of Right Ascen(r/s):  -0.7703178011E-008
SQRT(A)  (m 1/2):           5153.663086
Right Ascen at Week(rad):   0.3124798260E+001
Argument of Perigee(rad):   2.035317992
Mean Anom(rad):             0.5259277100E-001
Af0(s):                     0.7324218750E-003
Af1(s/s):                  -0.7275957614E-011
week:                        376

******** Week 376 almanac for PRN-10 ********
ID:                         10
Health:                     000
Eccentricity:               0.1105451584E-001
Time of Applicability(s):  319488.0000
Orbital Inclination(rad):   0.9941298054
Rate of Right Ascen(r/s):  -0.7486026109E-008
SQRT(A)  (m 1/2):           5153.612305
Right Ascen at Week(rad):   0.2118916574E+001
Argument of Perigee(rad):  -2.263396143
Mean Anom(rad):             0.1512792678E+001
Af0(s):                    -0.5741119385E-003
Af1(s/s):                   0.3637978807E-011
week:                        376

******** Week 376 almanac for PRN-11 ********
ID:                         11
Health:                     000
Eccentricity:               0.2389431000E-002
Time of Applicability(s):  319488.0000
Orbital Inclination(rad):   0.9627551046
Rate of Right Ascen(r/s):  -0.8126052768E-008
SQRT(A)  (m 1/2):           5153.583008
Right Ascen at Week(rad):   0.1099760486E+001
Argument of Perigee(rad):  -2.361001288
Mean Anom(rad):            -0.1278977829E+001
Af0(s):                    -0.2965927124E-003
Af1(s/s):                   0.1091393642E-010
week:                        376

******** Week 376 almanac for PRN-12 ********
ID:                         12
Health:                     000
Eccentricity:               0.8719921112E-002
Time of Applicability(s):  319488.0000
Orbital Inclination(rad):   0.9585486417
Rate of Right Ascen(r/s):  -0.7714607059E-008
SQRT(A)  (m 1/2):           5153.667480
Right Ascen at Week(rad):  -0.9671366870E+000
Argument of Perigee(rad):   1.584803639
Mean Anom(rad):             0.2198977938E+001
Af0(s):                    -0.6065368652E-003
Af1(s/s):                   0.0000000000E+000
week:                        376

******** Week 376 almanac for PRN-13 ********
ID:                         13
Health:                     063
Eccentricity:               0.2280235291E-002
Time of Applicability(s):  319488.0000
Orbital Inclination(rad):   0.9589680895
Rate of Right Ascen(r/s):  -0.7714607059E-008
SQRT(A)  (m 1/2):           5153.559082
Right Ascen at Week(rad):  -0.1075674441E+001
Argument of Perigee(rad):   1.834286739
Mean Anom(rad):             0.2024483504E+001
Af0(s):                     0.3814697266E-003
Af1(s/s):                   0.2182787284E-010
week:                        376

******** Week 376 almanac for PRN-14 ********
ID:                         14
Health:                     000
Eccentricity:               0.7284164429E-002
Time of Applicability(s):  319488.0000
Orbital Inclination(rad):   0.9418366400
Rate of Right Ascen(r/s):  -0.7874613724E-008
SQRT(A)  (m 1/2):           5153.605469
Right Ascen at Week(rad):  -0.1023588378E+001
Argument of Perigee(rad):  -2.689297145
Mean Anom(rad):             0.2079783586E+001
Af0(s):                     0.7486343384E-003
Af1(s/s):                   0.0000000000E+000
week:                        376

******** Week 376 almanac for PRN-15 ********
ID:                         15
Health:                     000
Eccentricity:               0.1691341400E-001
Time of Applicability(s):  319488.0000
Orbital Inclination(rad):   0.9445810275
Rate of Right Ascen(r/s):  -0.7897471819E-008
SQRT(A)  (m 1/2):           5153.692383
Right Ascen at Week(rad):   0.2978088877E+001
Argument of Perigee(rad):   1.527374109
Mean Anom(rad):            -0.1572317949E+001
Af0(s):                     0.4224777222E-003
Af1(s/s):                   0.3637978807E-011
week:                        376

******** Week 376 almanac for PRN-16 ********
ID:                         16
Health:                     000
Eccentricity:               0.1500225067E-001
Time of Applicability(s):  319488.0000
Orbital Inclination(rad):   0.9576378406
Rate of Right Ascen(r/s):  -0.7714607059E-008
SQRT(A)  (m 1/2):           5153.653320
Right Ascen at Week(rad):  -0.9503452899E+000
Argument of Perigee(rad):   0.935333550
Mean Anom(rad):             0.5057593830E+000
Af0(s):                     0.2870559692E-003
Af1(s/s):                   0.7275957614E-011
week:                        376

